{
  "type": "FeatureCollection",
  "features": [
    {
      "type": "Feature",
      "properties": {
        "norad_id": 66520,
        "name": "STARLINK-35952",
        "group": "last-30-days",
        "lat": -36.804893723482195,
        "lon": -10.3023775231492,
        "alt_km": 346.90771539350317,
        "timestamp": "2025-12-02T06:27:51.801729+00:00",
        "meta_object_name": "STARLINK-35952",
        "meta_object_id": "2025-265E",
        "meta_epoch": "2025-12-01T20:00:01.999008",
        "meta_mean_motion": 15.74952734,
        "meta_eccentricity": 0.0001779,
        "meta_inclination": 42.9994,
        "meta_ra_of_asc_node": 118.9277,
        "meta_arg_of_pericenter": 301.8397,
        "meta_mean_anomaly": 344.4898,
        "meta_ephemeris_type": 0,
        "meta_classification_type": "U",
        "meta_norad_cat_id": 66520,
        "meta_element_set_no": 999,
        "meta_rev_at_epoch": 324,
        "meta_bstar": 0.0010375,
        "meta_mean_motion_dot": 0.0016136,
        "meta_mean_motion_ddot": 0,
        "tle_line1": "1 66520U 25265E   25335.83335647  .00161360  00000+0  10375-2 0  9990",
        "tle_line2": "2 66520  42.9994 118.9277 0001779 301.8397 344.4898 15.74952734  3244"
      },
      "geometry": {
        "type": "Point",
        "coordinates": [
          -10.3023775231492,
          -36.804893723482195
        ]
      }
    },
    {
      "type": "Feature",
      "properties": {
        "norad_id": 66521,
        "name": "STARLINK-35915",
        "group": "last-30-days",
        "lat": -37.56887227060801,
        "lon": -8.0812552596627,
        "alt_km": 346.863285417483,
        "timestamp": "2025-12-02T06:27:51.801739+00:00",
        "meta_object_name": "STARLINK-35915",
        "meta_object_id": "2025-265F",
        "meta_epoch": "2025-12-01T20:00:01.999008",
        "meta_mean_motion": 15.74984864,
        "meta_eccentricity": 0.0001735,
        "meta_inclination": 42.9995,
        "meta_ra_of_asc_node": 118.9228,
        "meta_arg_of_pericenter": 296.2342,
        "meta_mean_anomaly": 352.0111,
        "meta_ephemeris_type": 0,
        "meta_classification_type": "U",
        "meta_norad_cat_id": 66521,
        "meta_element_set_no": 999,
        "meta_rev_at_epoch": 324,
        "meta_bstar": 0.00071015,
        "meta_mean_motion_dot": 0.00109778,
        "meta_mean_motion_ddot": 0,
        "tle_line1": "1 66521U 25265F   25335.83335647  .00109778  00000+0  71015-3 0  9995",
        "tle_line2": "2 66521  42.9995 118.9228 0001735 296.2342 352.0111 15.74984864  3243"
      },
      "geometry": {
        "type": "Point",
        "coordinates": [
          -8.0812552596627,
          -37.56887227060801
        ]
      }
    },
    {
      "type": "Feature",
      "properties": {
        "norad_id": 66522,
        "name": "STARLINK-35946",
        "group": "last-30-days",
        "lat": -38.290576856853356,
        "lon": -5.813482926302498,
        "alt_km": 346.61554472537773,
        "timestamp": "2025-12-02T06:27:51.801749+00:00",
        "meta_object_name": "STARLINK-35946",
        "meta_object_id": "2025-265G",
        "meta_epoch": "2025-12-01T20:00:01.999008",
        "meta_mean_motion": 15.75000937,
        "meta_eccentricity": 0.0001634,
        "meta_inclination": 42.9996,
        "meta_ra_of_asc_node": 118.9185,
        "meta_arg_of_pericenter": 272.4684,
        "meta_mean_anomaly": 17.694,
        "meta_ephemeris_type": 0,
        "meta_classification_type": "U",
        "meta_norad_cat_id": 66522,
        "meta_element_set_no": 999,
        "meta_rev_at_epoch": 324,
        "meta_bstar": 0.00057135,
        "meta_mean_motion_dot": 0.0008806,
        "meta_mean_motion_ddot": 0,
        "tle_line1": "1 66522U 25265G   25335.83335647  .00088060  00000+0  57135-3 0  9993",
        "tle_line2": "2 66522  42.9996 118.9185 0001634 272.4684  17.6940 15.75000937  3245"
      },
      "geometry": {
        "type": "Point",
        "coordinates": [
          -5.813482926302498,
          -38.290576856853356
        ]
      }
    },
    {
      "type": "Feature",
      "properties": {
        "norad_id": 66523,
        "name": "STARLINK-35969",
        "group": "last-30-days",
        "lat": -38.950618168363754,
        "lon": -3.5625254098095303,
        "alt_km": 346.8557789033275,
        "timestamp": "2025-12-02T06:27:51.801761+00:00",
        "meta_object_name": "STARLINK-35969",
        "meta_object_id": "2025-265H",
        "meta_epoch": "2025-12-01T20:00:01.999008",
        "meta_mean_motion": 15.75044237,
        "meta_eccentricity": 0.0001551,
        "meta_inclination": 42.9996,
        "meta_ra_of_asc_node": 118.9134,
        "meta_arg_of_pericenter": 267.7171,
        "meta_mean_anomaly": 24.3558,
        "meta_ephemeris_type": 0,
        "meta_classification_type": "U",
        "meta_norad_cat_id": 66523,
        "meta_element_set_no": 999,
        "meta_rev_at_epoch": 324,
        "meta_bstar": -0.00034069,
        "meta_mean_motion_dot": -0.00052497,
        "meta_mean_motion_ddot": 0,
        "tle_line1": "1 66523U 25265H   25335.83335647 -.00052497  00000+0 -34069-3 0  9992",
        "tle_line2": "2 66523  42.9996 118.9134 0001551 267.7171  24.3558 15.75044237  3247"
      },
      "geometry": {
        "type": "Point",
        "coordinates": [
          -3.5625254098095303,
          -38.950618168363754
        ]
      }
    },
    {
      "type": "Feature",
      "properties": {
        "norad_id": 66524,
        "name": "STARLINK-35687",
        "group": "last-30-days",
        "lat": -39.58180196259802,
        "lon": -1.2098609720546682,
        "alt_km": 346.6072883657889,
        "timestamp": "2025-12-02T06:27:51.801771+00:00",
        "meta_object_name": "STARLINK-35687",
        "meta_object_id": "2025-265J",
        "meta_epoch": "2025-12-01T20:00:01.999008",
        "meta_mean_motion": 15.75017514,
        "meta_eccentricity": 0.0001962,
        "meta_inclination": 42.9994,
        "meta_ra_of_asc_node": 118.9083,
        "meta_arg_of_pericenter": 282.4589,
        "meta_mean_anomaly": 11.5268,
        "meta_ephemeris_type": 0,
        "meta_classification_type": "U",
        "meta_norad_cat_id": 66524,
        "meta_element_set_no": 999,
        "meta_rev_at_epoch": 324,
        "meta_bstar": 0.00032089,
        "meta_mean_motion_dot": 0.00049056,
        "meta_mean_motion_ddot": 0,
        "tle_line1": "1 66524U 25265J   25335.83335647  .00049056  00000+0  32089-3 0  9998",
        "tle_line2": "2 66524  42.9994 118.9083 0001962 282.4589  11.5268 15.75017514  3246"
      },
      "geometry": {
        "type": "Point",
        "coordinates": [
          -1.2098609720546682,
          -39.58180196259802
        ]
      }
    },
    {
      "type": "Feature",
      "properties": {
        "norad_id": 66525,
        "name": "STARLINK-35975",
        "group": "last-30-days",
        "lat": -40.15686436018579,
        "lon": 1.1502631012816333,
        "alt_km": 346.7842911904745,
        "timestamp": "2025-12-02T06:27:51.801781+00:00",
        "meta_object_name": "STARLINK-35975",
        "meta_object_id": "2025-265K",
        "meta_epoch": "2025-12-01T20:00:01.999008",
        "meta_mean_motion": 15.75045387,
        "meta_eccentricity": 0.0001768,
        "meta_inclination": 42.9996,
        "meta_ra_of_asc_node": 118.9036,
        "meta_arg_of_pericenter": 277.0397,
        "meta_mean_anomaly": 18.8641,
        "meta_ephemeris_type": 0,
        "meta_classification_type": "U",
        "meta_norad_cat_id": 66525,
        "meta_element_set_no": 999,
        "meta_rev_at_epoch": 324,
        "meta_bstar": -0.00023557,
        "meta_mean_motion_dot": -0.00036519,
        "meta_mean_motion_ddot": 0,
        "tle_line1": "1 66525U 25265K   25335.83335647 -.00036519  00000+0 -23557-3 0  9991",
        "tle_line2": "2 66525  42.9996 118.9036 0001768 277.0397  18.8641 15.75045387  3242"
      },
      "geometry": {
        "type": "Point",
        "coordinates": [
          1.1502631012816333,
          -40.15686436018579
        ]
      }
    },
    {
      "type": "Feature",
      "properties": {
        "norad_id": 66526,
        "name": "STARLINK-35932",
        "group": "last-30-days",
        "lat": -40.69100747097345,
        "lon": 3.5890065743821786,
        "alt_km": 346.9528937800769,
        "timestamp": "2025-12-02T06:27:51.801793+00:00",
        "meta_object_name": "STARLINK-35932",
        "meta_object_id": "2025-265L",
        "meta_epoch": "2025-12-01T20:00:01.999008",
        "meta_mean_motion": 15.75015341,
        "meta_eccentricity": 0.0001291,
        "meta_inclination": 42.9995,
        "meta_ra_of_asc_node": 118.8989,
        "meta_arg_of_pericenter": 280.3525,
        "meta_mean_anomaly": 17.4693,
        "meta_ephemeris_type": 0,
        "meta_classification_type": "U",
        "meta_norad_cat_id": 66526,
        "meta_element_set_no": 999,
        "meta_rev_at_epoch": 313,
        "meta_bstar": 0.00038204,
        "meta_mean_motion_dot": 0.00058553,
        "meta_mean_motion_ddot": 0,
        "tle_line1": "1 66526U 25265L   25335.83335647  .00058553  00000+0  38204-3 0  9997",
        "tle_line2": "2 66526  42.9995 118.8989 0001291 280.3525  17.4693 15.75015341  3136"
      },
      "geometry": {
        "type": "Point",
        "coordinates": [
          3.5890065743821786,
          -40.69100747097345
        ]
      }
    }
  ]
}